STARLINK-3721           
1 52134U 22029AY  26077.87882457  .00000205  00000+0  30966-4 0  9995
2 52134  53.2182  27.8690 0001334  89.1912 270.9233 15.08831112222328
STARLINK-3729           
1 52135U 22029AZ  26077.13641546  .00000472  00000+0  47753-4 0  9995
2 52135  53.2191  31.2135 0001432  87.0675 273.0481 15.08836602222210
STARLINK-3720           
1 52136U 22029BA  26077.87145733 -.00001899  00000+0 -10126-3 0  9993
2 52136  53.2201  27.8994 0001258  95.4577 264.6559 15.08844025222329
STARLINK-3733           
1 52137U 22029BB  26077.59545460  .00000394  00000+0  42811-4 0  9998
2 52137  53.2181  29.1377 0001294  88.7953 271.3187 15.08841897222281
STARLINK-3723           
1 52138U 22029BC  26077.86777671  .00000670  00000+0  60213-4 0  9993
2 52138  53.2185  27.9160 0001471  87.0573 273.0588 15.08838965222320
STARLINK-3730           
1 52139U 22029BD  26077.91470261 -.00000563  00000+0 -17308-4 0  9995
2 52139  53.2186  37.7070 0001261  86.7974 273.3162 15.08832708222183
STARLINK-3682           
1 52140U 22029BE  26077.12810088  .00001464  00000+0  11008-3 0  9994
2 52140  53.2183  31.2369 0001259  89.4311 270.6826 15.08837089222212
STARLINK-3761           
1 52262U 22041B   26077.25689322  .00000769  00000+0  66405-4 0  9991
2 52262  53.2164  70.6128 0001887  88.0801 272.0408 15.08836456215651
STARLINK-3786           
1 52263U 22041C   26077.32681809  .00000290  00000+0  36294-4 0  9994
2 52263  53.2169  70.3467 0001359  89.3011 270.8137 15.08837440215661
STARLINK-3795           
1 52264U 22041D   26077.12073806  .00000776  00000+0  66845-4 0  9999
2 52264  53.2170  71.2709 0001323  86.4480 273.6663 15.08836426215637
STARLINK-3740           
1 52265U 22041E   26077.11706520  .00000893  00000+0  74176-4 0  9991
2 52265  53.2176  71.2887 0001362  87.8586 272.2562 15.08831097215638
STARLINK-3739           
1 52266U 22041F   26077.70951299  .00000958  00000+0  78254-4 0  9995
2 52266  53.2181  68.6265 0001283  92.1520 267.9619 15.08852887215728
STARLINK-3748           
1 52267U 22041G   26077.70586031  .00001105  00000+0  87485-4 0  9995
2 52267  53.2171  68.6516 0001112  94.6182 265.4937 15.08842603215720
STARLINK-3746           
1 52268U 22041H   26077.95241454  .00000368  00000+0  41202-4 0  9997
2 52268  53.2190  67.4611 0001503  89.3989 270.7176 15.08836317215768
STARLINK-3791           
1 52269U 22041J   26077.70216182  .00004588  00000+0  30594-3 0  9990
2 52269  53.2176  68.6608 0003106  80.7842 279.3502 15.08869675215723
STARLINK-3804           
1 52270U 22041K   26077.69482027  .00000121  00000+0  25668-4 0  9999
2 52270  53.2187  68.7220 0001326  84.8909 275.2234 15.08842543215721
