[{"OBJECT_NAME":"STARLINK-3721","OBJECT_ID":"2022-029AY","EPOCH":"2026-03-18T21:05:30.442848","MEAN_MOTION":15.08831112,"ECCENTRICITY":0.00013343,"INCLINATION":53.2182,"RA_OF_ASC_NODE":27.869,"ARG_OF_PERICENTER":89.1912,"MEAN_ANOMALY":270.9233,"EPHEMERIS_TYPE":0,"CLASSIFICATION_TYPE":"U","NORAD_CAT_ID":52134,"ELEMENT_SET_NO":999,"REV_AT_EPOCH":22232,"BSTAR":3.0965646e-5,"MEAN_MOTION_DOT":2.05e-6,"MEAN_MOTION_DDOT":0},{"OBJECT_NAME":"STARLINK-3729","OBJECT_ID":"2022-029AZ","EPOCH":"2026-03-18T03:16:26.295744","MEAN_MOTION":15.08836602,"ECCENTRICITY":0.00014329,"INCLINATION":53.2191,"RA_OF_ASC_NODE":31.2135,"ARG_OF_PERICENTER":87.0675,"MEAN_ANOMALY":273.0481,"EPHEMERIS_TYPE":0,"CLASSIFICATION_TYPE":"U","NORAD_CAT_ID":52135,"ELEMENT_SET_NO":999,"REV_AT_EPOCH":22221,"BSTAR":4.7752622e-5,"MEAN_MOTION_DOT":4.72e-6,"MEAN_MOTION_DDOT":0},{"OBJECT_NAME":"STARLINK-3720","OBJECT_ID":"2022-029BA","EPOCH":"2026-03-18T20:54:53.913312","MEAN_MOTION":15.08844025,"ECCENTRICITY":0.00012586,"INCLINATION":53.2201,"RA_OF_ASC_NODE":27.8994,"ARG_OF_PERICENTER":95.4577,"MEAN_ANOMALY":264.6559,"EPHEMERIS_TYPE":0,"CLASSIFICATION_TYPE":"U","NORAD_CAT_ID":52136,"ELEMENT_SET_NO":999,"REV_AT_EPOCH":22232,"BSTAR":-0.00010126477,"MEAN_MOTION_DOT":-1.899e-5,"MEAN_MOTION_DDOT":0},{"OBJECT_NAME":"STARLINK-3733","OBJECT_ID":"2022-029BB","EPOCH":"2026-03-18T14:17:27.277440","MEAN_MOTION":15.08841897,"ECCENTRICITY":0.0001294,"INCLINATION":53.2181,"RA_OF_ASC_NODE":29.1377,"ARG_OF_PERICENTER":88.7953,"MEAN_ANOMALY":271.3187,"EPHEMERIS_TYPE":0,"CLASSIFICATION_TYPE":"U","NORAD_CAT_ID":52137,"ELEMENT_SET_NO":999,"REV_AT_EPOCH":22228,"BSTAR":4.2811e-5,"MEAN_MOTION_DOT":3.94e-6,"MEAN_MOTION_DDOT":0},{"OBJECT_NAME":"STARLINK-3723","OBJECT_ID":"2022-029BC","EPOCH":"2026-03-18T20:49:35.907744","MEAN_MOTION":15.08838965,"ECCENTRICITY":0.00014716,"INCLINATION":53.2185,"RA_OF_ASC_NODE":27.916,"ARG_OF_PERICENTER":87.0573,"MEAN_ANOMALY":273.0588,"EPHEMERIS_TYPE":0,"CLASSIFICATION_TYPE":"U","NORAD_CAT_ID":52138,"ELEMENT_SET_NO":999,"REV_AT_EPOCH":22232,"BSTAR":6.0212869e-5,"MEAN_MOTION_DOT":6.7e-6,"MEAN_MOTION_DDOT":0},{"OBJECT_NAME":"STARLINK-3730","OBJECT_ID":"2022-029BD","EPOCH":"2026-03-18T21:57:10.305504","MEAN_MOTION":15.08832708,"ECCENTRICITY":0.00012615,"INCLINATION":53.2186,"RA_OF_ASC_NODE":37.707,"ARG_OF_PERICENTER":86.7974,"MEAN_ANOMALY":273.3162,"EPHEMERIS_TYPE":0,"CLASSIFICATION_TYPE":"U","NORAD_CAT_ID":52139,"ELEMENT_SET_NO":999,"REV_AT_EPOCH":22218,"BSTAR":-1.7307987e-5,"MEAN_MOTION_DOT":-5.63e-6,"MEAN_MOTION_DDOT":0},{"OBJECT_NAME":"STARLINK-3682","OBJECT_ID":"2022-029BE","EPOCH":"2026-03-18T03:04:27.916032","MEAN_MOTION":15.08837089,"ECCENTRICITY":0.00012599,"INCLINATION":53.2183,"RA_OF_ASC_NODE":31.2369,"ARG_OF_PERICENTER":89.4311,"MEAN_ANOMALY":270.6826,"EPHEMERIS_TYPE":0,"CLASSIFICATION_TYPE":"U","NORAD_CAT_ID":52140,"ELEMENT_SET_NO":999,"REV_AT_EPOCH":22221,"BSTAR":0.00011008195,"MEAN_MOTION_DOT":1.464e-5,"MEAN_MOTION_DDOT":0},{"OBJECT_NAME":"STARLINK-3761","OBJECT_ID":"2022-041B","EPOCH":"2026-03-18T06:09:55.574208","MEAN_MOTION":15.08836456,"ECCENTRICITY":0.0001887,"INCLINATION":53.2164,"RA_OF_ASC_NODE":70.6128,"ARG_OF_PERICENTER":88.0801,"MEAN_ANOMALY":272.0408,"EPHEMERIS_TYPE":0,"CLASSIFICATION_TYPE":"U","NORAD_CAT_ID":52262,"ELEMENT_SET_NO":999,"REV_AT_EPOCH":21565,"BSTAR":6.6405e-5,"MEAN_MOTION_DOT":7.69e-6,"MEAN_MOTION_DDOT":0},{"OBJECT_NAME":"STARLINK-3786","OBJECT_ID":"2022-041C","EPOCH":"2026-03-18T07:50:37.082976","MEAN_MOTION":15.0883744,"ECCENTRICITY":0.00013593,"INCLINATION":53.2169,"RA_OF_ASC_NODE":70.3467,"ARG_OF_PERICENTER":89.3011,"MEAN_ANOMALY":270.8137,"EPHEMERIS_TYPE":0,"CLASSIFICATION_TYPE":"U","NORAD_CAT_ID":52263,"ELEMENT_SET_NO":999,"REV_AT_EPOCH":21566,"BSTAR":3.6293559e-5,"MEAN_MOTION_DOT":2.9e-6,"MEAN_MOTION_DDOT":0},{"OBJECT_NAME":"STARLINK-3795","OBJECT_ID":"2022-041D","EPOCH":"2026-03-18T02:53:51.768384","MEAN_MOTION":15.08836426,"ECCENTRICITY":0.00013237,"INCLINATION":53.217,"RA_OF_ASC_NODE":71.2709,"ARG_OF_PERICENTER":86.448,"MEAN_ANOMALY":273.6663,"EPHEMERIS_TYPE":0,"CLASSIFICATION_TYPE":"U","NORAD_CAT_ID":52264,"ELEMENT_SET_NO":999,"REV_AT_EPOCH":21563,"BSTAR":6.6844813e-5,"MEAN_MOTION_DOT":7.76e-6,"MEAN_MOTION_DDOT":0},{"OBJECT_NAME":"STARLINK-3740","OBJECT_ID":"2022-041E","EPOCH":"2026-03-18T02:48:34.433280","MEAN_MOTION":15.08831097,"ECCENTRICITY":0.00013622,"INCLINATION":53.2176,"RA_OF_ASC_NODE":71.2887,"ARG_OF_PERICENTER":87.8586,"MEAN_ANOMALY":272.2562,"EPHEMERIS_TYPE":0,"CLASSIFICATION_TYPE":"U","NORAD_CAT_ID":52265,"ELEMENT_SET_NO":999,"REV_AT_EPOCH":21563,"BSTAR":7.4175638e-5,"MEAN_MOTION_DOT":8.93e-6,"MEAN_MOTION_DDOT":0},{"OBJECT_NAME":"STARLINK-3739","OBJECT_ID":"2022-041F","EPOCH":"2026-03-18T17:01:41.922336","MEAN_MOTION":15.08852887,"ECCENTRICITY":0.00012833,"INCLINATION":53.2181,"RA_OF_ASC_NODE":68.6265,"ARG_OF_PERICENTER":92.152,"MEAN_ANOMALY":267.9619,"EPHEMERIS_TYPE":0,"CLASSIFICATION_TYPE":"U","NORAD_CAT_ID":52266,"ELEMENT_SET_NO":999,"REV_AT_EPOCH":21572,"BSTAR":7.8254209e-5,"MEAN_MOTION_DOT":9.58e-6,"MEAN_MOTION_DDOT":0},{"OBJECT_NAME":"STARLINK-3748","OBJECT_ID":"2022-041G","EPOCH":"2026-03-18T16:56:26.330784","MEAN_MOTION":15.08842603,"ECCENTRICITY":0.00011123,"INCLINATION":53.2171,"RA_OF_ASC_NODE":68.6516,"ARG_OF_PERICENTER":94.6182,"MEAN_ANOMALY":265.4937,"EPHEMERIS_TYPE":0,"CLASSIFICATION_TYPE":"U","NORAD_CAT_ID":52267,"ELEMENT_SET_NO":999,"REV_AT_EPOCH":21572,"BSTAR":8.7484646e-5,"MEAN_MOTION_DOT":1.105e-5,"MEAN_MOTION_DDOT":0},{"OBJECT_NAME":"STARLINK-3746","OBJECT_ID":"2022-041H","EPOCH":"2026-03-18T22:51:28.616256","MEAN_MOTION":15.08836317,"ECCENTRICITY":0.00015035,"INCLINATION":53.219,"RA_OF_ASC_NODE":67.4611,"ARG_OF_PERICENTER":89.3989,"MEAN_ANOMALY":270.7176,"EPHEMERIS_TYPE":0,"CLASSIFICATION_TYPE":"U","NORAD_CAT_ID":52268,"ELEMENT_SET_NO":999,"REV_AT_EPOCH":21576,"BSTAR":4.1202058e-5,"MEAN_MOTION_DOT":3.68e-6,"MEAN_MOTION_DDOT":0},{"OBJECT_NAME":"STARLINK-3791","OBJECT_ID":"2022-041J","EPOCH":"2026-03-18T16:51:06.781248","MEAN_MOTION":15.08869675,"ECCENTRICITY":0.00031064,"INCLINATION":53.2176,"RA_OF_ASC_NODE":68.6608,"ARG_OF_PERICENTER":80.7842,"MEAN_ANOMALY":279.3502,"EPHEMERIS_TYPE":0,"CLASSIFICATION_TYPE":"U","NORAD_CAT_ID":52269,"ELEMENT_SET_NO":999,"REV_AT_EPOCH":21572,"BSTAR":0.00030593935,"MEAN_MOTION_DOT":4.588e-5,"MEAN_MOTION_DDOT":0},{"OBJECT_NAME":"STARLINK-3804","OBJECT_ID":"2022-041K","EPOCH":"2026-03-18T16:40:32.471328","MEAN_MOTION":15.08842543,"ECCENTRICITY":0.0001326,"INCLINATION":53.2187,"RA_OF_ASC_NODE":68.722,"ARG_OF_PERICENTER":84.8909,"MEAN_ANOMALY":275.2234,"EPHEMERIS_TYPE":0,"CLASSIFICATION_TYPE":"U","NORAD_CAT_ID":52270,"ELEMENT_SET_NO":999,"REV_AT_EPOCH":21572,"BSTAR":2.5667842e-5,"MEAN_MOTION_DOT":1.21e-6,"MEAN_MOTION_DDOT":0}]
